QZS-1R                  
1 49336U 21096A   23361.59654544 -.00000300  00000+0  00000+0 0  9992
2 49336  35.5916  93.1683 0755845 271.3738  79.1871  1.00253478  7955
